0 ARIANE 1 DEB
1 25098U 79104D   13282.43373723 -.00000021  00000-0 -30011-5 0  3879
2 25098 017.6516 043.1438 5804595 007.7875 012.9946 04.13825205244602
0 ARIANE 1 DEB
1 25098U 79104D   13287.51015326  .00000015  00000-0  23607-3 0  3899
2 25098 017.6589 039.0971 5804106 015.2876 015.6627 04.13826665244811
0 ARIANE 1 DEB
1 25098U 79104D   13290.40448475  .00000200  00000-0  78933-3 0  3906
2 25098 017.6595 036.7872 5803850 019.5722 007.5638 04.13830349244933
0 ARIANE 1 DEB
1 25098U 79104D   13293.55443641  .00000392  00000-0  12101-2 0  3912
2 25098 017.6626 034.2785 5803752 024.2312 020.3152 04.13832218245069
